51624,ONEWEB-0415,2022,109.89,148.0,+,87.89,Active,1,LEO,French Guiana,UK,Commercial,Communications,Soyuz,1 51624U 22012C   25009.27360493  .00000354  00000+0  97808-3 0  9991,2 51624  87.8911 140.6481 0001813 112.7909 247.3410 13.10372632140677,13.10372632,0.0001813,LEO
51625,ONEWEB-0416,2022,109.89,148.0,+,87.89,Active,1,LEO,French Guiana,UK,Commercial,Communications,Soyuz,1 51625U 22012D   25009.36157694  .00000261  00000+0  71249-3 0  9997,2 51625  87.8916 140.6377 0001590 104.8074 255.3229 13.10370706142011,13.10370706,0.000159,LEO
51626,ONEWEB-0422,2022,109.29,148.0,+,87.91,Active,1,LEO,French Guiana,UK,Commercial,Communications,Soyuz,1 51626U 22012E   25009.26782126  .00000118  00000+0  27069-3 0  9993,2 51626  87.9103 110.2303 0001214 131.7698 228.3537 13.17653041144812,13.17653041,0.0001214,LEO
51627,ONEWEB-0423,2022,109.29,148.0,+,87.91,Active,1,LEO,French Guiana,UK,Commercial,Communications,Soyuz,1 51627U 22012F   25009.26107264  .00000055  00000+0  10929-3 0  9995,2 51627  87.9104 110.2356 0001571 103.7430 256.3877 13.17652077145997,13.17652077,0.0001571,LEO
51628,ONEWEB-0425,2022,109.89,148.0,+,87.89,Active,1,LEO,French Guiana,UK,Commercial,Communications,Soyuz,1 51628U 22012G   25009.29516844 -.00000225  00000+0 -68022-3 0  9995,2 51628  87.8913 140.6274 0001516  90.0256 270.1045 13.10371541142001,13.10371541,0.0001516,LEO
51629,ONEWEB-0428,2022,109.89,148.0,+,87.89,Active,1,LEO,French Guiana,UK,Commercial,Communications,Soyuz,1 51629U 22012H   25009.27525161  .00000613  00000+0  17207-2 0  9993,2 51629  87.8914 140.6498 0001498 114.2824 245.8460 13.10374412140671,13.10374412,0.0001498,LEO
51630,ONEWEB-0431,2022,109.89,148.0,+,87.89,Active,1,LEO,French Guiana,UK,Commercial,Communications,Soyuz,1 51630U 22012J   25009.77972692 -.00000519  00000+0 -15228-2 0  9993,2 51630  87.8911 140.5335 0001766 125.7291 234.4001 13.10375389142088,13.10375389,0.0001766,LEO
51631,ONEWEB-0434,2022,109.89,148.0,+,87.89,Active,1,LEO,French Guiana,UK,Commercial,Communications,Soyuz,1 51631U 22012K   25009.29848439 -.00000378  00000+0 -11199-2 0  9998,2 51631  87.8914 140.6575 0001541  78.0578 282.0722 13.10370050140715,13.1037005,0.0001541,LEO
